start=new Date('2022-12-13T00:00:00.000Z').valueOf();
sats=[{"MEAN_ANOMALY":"321.7449","PERIOD":"95.592","MEAN_MOTION_DOT":"0.00000138","COUNTRY_CODE":"US","SEMIMAJOR_AXIS":"6925.346","REV_AT_EPOCH":"8968","ECCENTRICITY":"0.00019580","RA_OF_ASC_NODE":"13.7417","TIME_SYSTEM":"UTC","MEAN_MOTION_DDOT":"0.0000000000000","BSTAR":"0.00002816800000","REF_FRAME":"TEME","TLE_LINE2":"2 48333  53.0572  13.7417 0001958  38.3679 321.7449 15.06400990 89682","CENTER_NAME":"EARTH","ELEMENT_SET_NO":"999","MEAN_MOTION":"15.06400990","INCLINATION":"53.0572","PERIAPSIS":"545.855","ARG_OF_PERICENTER":"38.3679","MEAN_ELEMENT_THEORY":"SGP4","DECAY_DATE":null,"TLE_LINE1":"1 48333U 21036BK  22346.37329910  .00000138  00000-0  28168-4 0  9995","EPOCH":"2022-12-12T08:57:33.042240","OBJECT_TYPE":"PAYLOAD","APOAPSIS":"548.567","GP_ID":"220168652","CLASSIFICATION_TYPE":"U","OBJECT_ID":"2021-036BK","EPHEMERIS_TYPE":"0","RCS_SIZE":"LARGE","SITE":"AFETR","FILE":"3694071","NORAD_CAT_ID":"48333","OBJECT_NAME":"STARLINK-2518","LAUNCH_DATE":"2021-04-29"},{"OBJECT_ID":"2021-036BL","EPHEMERIS_TYPE":"0","SITE":"AFETR","RCS_SIZE":"LARGE","NORAD_CAT_ID":"48334","FILE":"3694334","LAUNCH_DATE":"2021-04-29","OBJECT_NAME":"STARLINK-2470","MEAN_ELEMENT_THEORY":"SGP4","DECAY_DATE":null,"TLE_LINE1":"1 48334U 21036BL  22346.50230732  .00003369  00000-0  24493-3 0  9999","OBJECT_TYPE":"PAYLOAD","EPOCH":"2022-12-12T12:03:19.352448","APOAPSIS":"548.263","CLASSIFICATION_TYPE":"U","GP_ID":"220175182","MEAN_MOTION_DDOT":"0.0000000000000","TIME_SYSTEM":"UTC","REF_FRAME":"TEME","BSTAR":"0.00024493000000","CENTER_NAME":"EARTH","TLE_LINE2":"2 48334  53.0555  13.1459 0001529  54.8640 305.2492 15.06403002 90290","ELEMENT_SET_NO":"999","MEAN_MOTION":"15.06403002","INCLINATION":"53.0555","PERIAPSIS":"546.145","ARG_OF_PERICENTER":"54.8640","PERIOD":"95.592","MEAN_ANOMALY":"305.2492","MEAN_MOTION_DOT":"0.00003369","COUNTRY_CODE":"US","SEMIMAJOR_AXIS":"6925.339","ECCENTRICITY":"0.00015290","REV_AT_EPOCH":"9029","RA_OF_ASC_NODE":"13.1459"},{"CLASSIFICATION_TYPE":"U","GP_ID":"220168157","OBJECT_TYPE":"PAYLOAD","EPOCH":"2022-12-12T08:46:56.121312","APOAPSIS":"548.375","TLE_LINE1":"1 48335U 21036BM  22346.36592733  .00001510  00000-0  12023-3 0  9998","MEAN_ELEMENT_THEORY":"SGP4","DECAY_DATE":null,"FILE":"3694071","NORAD_CAT_ID":"48335","OBJECT_NAME":"STARLINK-2441","LAUNCH_DATE":"2021-04-29","EPHEMERIS_TYPE":"0","SITE":"AFETR","RCS_SIZE":"LARGE","OBJECT_ID":"2021-036BM","RA_OF_ASC_NODE":"13.7722","SEMIMAJOR_AXIS":"6925.342","ECCENTRICITY":"0.00016860","REV_AT_EPOCH":"8968","COUNTRY_CODE":"US","PERIOD":"95.592","MEAN_ANOMALY":"291.9977","MEAN_MOTION_DOT":"0.00001510","MEAN_MOTION":"15.06402145","PERIAPSIS":"546.039","INCLINATION":"53.0567","ARG_OF_PERICENTER":"68.1191","CENTER_NAME":"EARTH","TLE_LINE2":"2 48335  53.0567  13.7722 0001686  68.1191 291.9977 15.06402145 89683","ELEMENT_SET_NO":"999","REF_FRAME":"TEME","BSTAR":"0.00012023000000","MEAN_MOTION_DDOT":"0.0000000000000","TIME_SYSTEM":"UTC"},{"EPHEMERIS_TYPE":"0","SITE":"AFETR","RCS_SIZE":"LARGE","OBJECT_ID":"2021-038A","FILE":"3694071","NORAD_CAT_ID":"48353","LAUNCH_DATE":"2021-05-04","OBJECT_NAME":"STARLINK-2613","TLE_LINE1":"1 48353U 21038A   22346.23875988 -.00001165  00000-0 -59292-4 0  9990","MEAN_ELEMENT_THEORY":"SGP4","DECAY_DATE":null,"CLASSIFICATION_TYPE":"U","GP_ID":"220168654","EPOCH":"2022-12-12T05:43:48.853632","OBJECT_TYPE":"PAYLOAD","APOAPSIS":"548.439","REF_FRAME":"TEME","BSTAR":"-0.00005929200000","MEAN_MOTION_DDOT":"0.0000000000000","TIME_SYSTEM":"UTC","MEAN_MOTION":"15.06395526","ARG_OF_PERICENTER":"62.2862","PERIAPSIS":"546.015","INCLINATION":"53.0558","CENTER_NAME":"EARTH","TLE_LINE2":"2 48353  53.0558 274.3425 0001750  62.2862 297.8304 15.06395526 88659","ELEMENT_SET_NO":"999","COUNTRY_CODE":"US","PERIOD":"95.592","MEAN_ANOMALY":"297.8304","MEAN_MOTION_DOT":"-0.00001165","RA_OF_ASC_NODE":"274.3425","SEMIMAJOR_AXIS":"6925.362","ECCENTRICITY":"0.00017500","REV_AT_EPOCH":"8865"},{"APOAPSIS":"548.207","OBJECT_TYPE":"PAYLOAD","EPOCH":"2022-12-12T05:38:30.901632","CLASSIFICATION_TYPE":"U","GP_ID":"220167646","DECAY_DATE":null,"MEAN_ELEMENT_THEORY":"SGP4","TLE_LINE1":"1 48354U 21038B   22346.23507988  .00002086  00000-0  15886-3 0  9994","LAUNCH_DATE":"2021-05-04","OBJECT_NAME":"STARLINK-2674","NORAD_CAT_ID":"48354","FILE":"3694071","OBJECT_ID":"2021-038B","SITE":"AFETR","RCS_SIZE":"LARGE","EPHEMERIS_TYPE":"0","ECCENTRICITY":"0.00014590","REV_AT_EPOCH":"8865","SEMIMAJOR_AXIS":"6925.331","RA_OF_ASC_NODE":"274.3574","MEAN_MOTION_DOT":"0.00002086","PERIOD":"95.592","MEAN_ANOMALY":"296.5415","COUNTRY_CODE":"US","ELEMENT_SET_NO":"999","CENTER_NAME":"EARTH","TLE_LINE2":"2 48354  53.0529 274.3574 0001459  63.5723 296.5415 15.06405644 88651","PERIAPSIS":"546.186","INCLINATION":"53.0529","ARG_OF_PERICENTER":"63.5723","MEAN_MOTION":"15.06405644","MEAN_MOTION_DDOT":"0.0000000000000","TIME_SYSTEM":"UTC","REF_FRAME":"TEME","BSTAR":"0.00015886000000"},{"OBJECT_ID":"2021-038C","RCS_SIZE":"LARGE","SITE":"AFETR","EPHEMERIS_TYPE":"0","LAUNCH_DATE":"2021-05-04","OBJECT_NAME":"STARLINK-2635","FILE":"3694071","NORAD_CAT_ID":"48355","DECAY_DATE":null,"MEAN_ELEMENT_THEORY":"SGP4","TLE_LINE1":"1 48355U 21038C   22346.23139515  .00006236  00000-0  43722-3 0  9993","APOAPSIS":"548.460","OBJECT_TYPE":"PAYLOAD","EPOCH":"2022-12-12T05:33:12.540960","GP_ID":"220168159","CLASSIFICATION_TYPE":"U","TIME_SYSTEM":"UTC","MEAN_MOTION_DDOT":"0.0000000000000","BSTAR":"0.00043722000000","REF_FRAME":"TEME","ELEMENT_SET_NO":"999","TLE_LINE2":"2 48355  53.0542 274.3802 0001785  43.7044 316.4086 15.06396571 88653","CENTER_NAME":"EARTH","ARG_OF_PERICENTER":"43.7044","PERIAPSIS":"545.988","INCLINATION":"53.0542","MEAN_MOTION":"15.06396571","MEAN_MOTION_DOT":"0.00006236","MEAN_ANOMALY":"316.4086","PERIOD":"95.592","COUNTRY_CODE":"US","REV_AT_EPOCH":"8865","ECCENTRICITY":"0.00017850","SEMIMAJOR_AXIS":"6925.359","RA_OF_ASC_NODE":"274.3802"},{"CLASSIFICATION_TYPE":"U","GP_ID":"220167909","APOAPSIS":"548.464","EPOCH":"2022-12-12T07:03:26.184384","OBJECT_TYPE":"PAYLOAD","TLE_LINE1":"1 48356U 21038D   22346.29405306 -.00000679  00000-0 -26680-4 0  9996","DECAY_DATE":null,"MEAN_ELEMENT_THEORY":"SGP4","LAUNCH_DATE":"2021-05-04","OBJECT_NAME":"STARLINK-2637","NORAD_CAT_ID":"48356","FILE":"3694071","SITE":"AFETR","RCS_SIZE":"LARGE","EPHEMERIS_TYPE":"0","OBJECT_ID":"2021-038D","RA_OF_ASC_NODE":"274.0831","ECCENTRICITY":"0.00018050","REV_AT_EPOCH":"8866","SEMIMAJOR_AXIS":"6925.349","COUNTRY_CODE":"US","MEAN_MOTION_DOT":"-0.00000679","PERIOD":"95.592","MEAN_ANOMALY":"294.3084","PERIAPSIS":"545.964","ARG_OF_PERICENTER":"65.8094","INCLINATION":"53.0555","MEAN_MOTION":"15.06399854","ELEMENT_SET_NO":"999","CENTER_NAME":"EARTH","TLE_LINE2":"2 48356  53.0555 274.0831 0001805  65.8094 294.3084 15.06399854 88660","REF_FRAME":"TEME","BSTAR":"-0.00002668000000","MEAN_MOTION_DDOT":"0.0000000000000","TIME_SYSTEM":"UTC"},{"PERIAPSIS":"546.066","ARG_OF_PERICENTER":"59.2738","INCLINATION":"53.0551","MEAN_MOTION":"15.06393761","ELEMENT_SET_NO":"999","TLE_LINE2":"2 48357  53.0551 271.7504 0001685  59.2738 300.8417 15.06393761 88749","CENTER_NAME":"EARTH","BSTAR":"-0.00009349700000","REF_FRAME":"TEME","TIME_SYSTEM":"UTC","MEAN_MOTION_DDOT":"0.0000000000000","RA_OF_ASC_NODE":"271.7504","REV_AT_EPOCH":"8874","ECCENTRICITY":"0.00016850","SEMIMAJOR_AXIS":"6925.368","COUNTRY_CODE":"US","MEAN_MOTION_DOT":"-0.00001674","MEAN_ANOMALY":"300.8417","PERIOD":"95.593","LAUNCH_DATE":"2021-05-04","OBJECT_NAME":"STARLINK-2636","NORAD_CAT_ID":"48357","FILE":"3695286","RCS_SIZE":"LARGE","SITE":"AFETR","EPHEMERIS_TYPE":"0","OBJECT_ID":"2021-038E","GP_ID":"220208009","CLASSIFICATION_TYPE":"U","APOAPSIS":"548.400","OBJECT_TYPE":"PAYLOAD","EPOCH":"2022-12-12T19:46:23.850624","TLE_LINE1":"1 48357U 21038E   22346.82388716 -.00001674  00000-0 -93497-4 0  9997","DECAY_DATE":null,"MEAN_ELEMENT_THEORY":"SGP4"},{"RA_OF_ASC_NODE":"271.4515","REV_AT_EPOCH":"8874","ECCENTRICITY":"0.00013790","SEMIMAJOR_AXIS":"6925.283","COUNTRY_CODE":"US","MEAN_MOTION_DOT":"-0.00005711","MEAN_ANOMALY":"302.4079","PERIOD":"95.591","PERIAPSIS":"546.193","ARG_OF_PERICENTER":"57.7044","INCLINATION":"53.0551","MEAN_MOTION":"15.06421496","ELEMENT_SET_NO":"999","TLE_LINE2":"2 48358  53.0551 271.4515 0001379  57.7044 302.4079 15.06421496 88741","CENTER_NAME":"EARTH","BSTAR":"-0.00036458000000","REF_FRAME":"TEME","TIME_SYSTEM":"UTC","MEAN_MOTION_DDOT":"0.0000000000000","GP_ID":"220207258","CLASSIFICATION_TYPE":"U","APOAPSIS":"548.103","EPOCH":"2022-12-12T21:12:39.920832","OBJECT_TYPE":"PAYLOAD","TLE_LINE1":"1 48358U 21038F   22346.88379538 -.00005711  00000-0 -36458-3 0  9995","DECAY_DATE":null,"MEAN_ELEMENT_THEORY":"SGP4","LAUNCH_DATE":"2021-05-04","OBJECT_NAME":"STARLINK-2624","NORAD_CAT_ID":"48358","FILE":"3695286","RCS_SIZE":"LARGE","SITE":"AFETR","EPHEMERIS_TYPE":"0","OBJECT_ID":"2021-038F"},{"EPHEMERIS_TYPE":"0","RCS_SIZE":"LARGE","SITE":"AFETR","OBJECT_ID":"2021-038G","NORAD_CAT_ID":"48359","FILE":"3695286","OBJECT_NAME":"STARLINK-2628","LAUNCH_DATE":"2021-05-04","TLE_LINE1":"1 48359U 21038G   22346.81376366 -.00003352  00000-0 -20618-3 0  9995","MEAN_ELEMENT_THEORY":"SGP4","DECAY_DATE":null,"GP_ID":"220207508","CLASSIFICATION_TYPE":"U","EPOCH":"2022-12-12T19:31:49.180224","OBJECT_TYPE":"PAYLOAD","APOAPSIS":"548.475","BSTAR":"-0.00020618000000","REF_FRAME":"TEME","TIME_SYSTEM":"UTC","MEAN_MOTION_DDOT":"0.0000000000000","MEAN_MOTION":"15.06407201","INCLINATION":"53.0553","PERIAPSIS":"545.908","ARG_OF_PERICENTER":"69.0993","TLE_LINE2":"2 48359  53.0553 271.7674 0001854  69.0993 291.0195 15.06407201 88739","CENTER_NAME":"EARTH","ELEMENT_SET_NO":"999","COUNTRY_CODE":"US","MEAN_ANOMALY":"291.0195","PERIOD":"95.592","MEAN_MOTION_DOT":"-0.00003352","RA_OF_ASC_NODE":"271.7674","SEMIMAJOR_AXIS":"6925.326","REV_AT_EPOCH":"8873","ECCENTRICITY":"0.00018540"}];
